{
  "type": "FeatureCollection",
  "features": [
    {
      "type": "Feature",
      "properties": {
        "norad_id": 41581,
        "name": "INTELSAT 31 (IS-31)",
        "group": "intelsat",
        "lat": -0.021886840126888806,
        "lon": -136.02913378833517,
        "alt_km": 35777.62523517922,
        "timestamp": "2025-12-11T15:53:39.210180+00:00",
        "meta_object_name": "INTELSAT 31 (IS-31)",
        "meta_object_id": "2016-035A",
        "meta_epoch": "2025-12-11T02:47:08.911104",
        "meta_mean_motion": 1.00272585,
        "meta_eccentricity": 0.00019714,
        "meta_inclination": 0.0158,
        "meta_ra_of_asc_node": 272.679,
        "meta_arg_of_pericenter": 304.2877,
        "meta_mean_anomaly": 169.8397,
        "meta_ephemeris_type": 0,
        "meta_classification_type": "U",
        "meta_norad_cat_id": 41581,
        "meta_element_set_no": 999,
        "meta_rev_at_epoch": 3479,
        "meta_bstar": 0,
        "meta_mean_motion_dot": -1.45e-06,
        "meta_mean_motion_ddot": 0,
        "tle_line1": "1 41581U 16035A   25345.11607536 -.00000145  00000+0  00000+0 0  9991",
        "tle_line2": "2 41581   0.0158 272.6790 0001971 304.2877 169.8397  1.00272585 34793"
      },
      "geometry": {
        "type": "Point",
        "coordinates": [
          -136.02913378833517,
          -0.021886840126888806
        ]
      }
    },
    {
      "type": "Feature",
      "properties": {
        "norad_id": 41747,
        "name": "INTELSAT 36 (IS-36)",
        "group": "intelsat",
        "lat": 0.013586558093695614,
        "lon": 27.526844568743343,
        "alt_km": 35783.967199690785,
        "timestamp": "2025-12-11T15:53:39.210192+00:00",
        "meta_object_name": "INTELSAT 36 (IS-36)",
        "meta_object_id": "2016-053A",
        "meta_epoch": "2025-12-11T05:16:24.615840",
        "meta_mean_motion": 1.00270343,
        "meta_eccentricity": 0.00014668,
        "meta_inclination": 0.0147,
        "meta_ra_of_asc_node": 14.6045,
        "meta_arg_of_pericenter": 307.0469,
        "meta_mean_anomaly": 266.1197,
        "meta_ephemeris_type": 0,
        "meta_classification_type": "U",
        "meta_norad_cat_id": 41747,
        "meta_element_set_no": 999,
        "meta_rev_at_epoch": 3406,
        "meta_bstar": 0,
        "meta_mean_motion_dot": -1.8e-07,
        "meta_mean_motion_ddot": 0,
        "tle_line1": "1 41747U 16053A   25345.21972935 -.00000018  00000+0  00000+0 0  9993",
        "tle_line2": "2 41747   0.0147  14.6045 0001466 307.0469 266.1197  1.00270343 34068"
      },
      "geometry": {
        "type": "Point",
        "coordinates": [
          27.526844568743343,
          0.013586558093695614
        ]
      }
    },
    {
      "type": "Feature",
      "properties": {
        "norad_id": 41945,
        "name": "INTELSAT 32E (IS-32E)",
        "group": "intelsat",
        "lat": -0.023815379215099283,
        "lon": -84.16529103465814,
        "alt_km": 35786.43285128758,
        "timestamp": "2025-12-11T15:53:39.210204+00:00",
        "meta_object_name": "INTELSAT 32E (IS-32E)",
        "meta_object_id": "2017-007B",
        "meta_epoch": "2025-12-11T04:44:42.651168",
        "meta_mean_motion": 1.00269616,
        "meta_eccentricity": 5.322e-05,
        "meta_inclination": 0.0343,
        "meta_ra_of_asc_node": 80.0964,
        "meta_arg_of_pericenter": 277.6705,
        "meta_mean_anomaly": 110.3883,
        "meta_ephemeris_type": 0,
        "meta_classification_type": "U",
        "meta_norad_cat_id": 41945,
        "meta_element_set_no": 999,
        "meta_rev_at_epoch": 3234,
        "meta_bstar": 0,
        "meta_mean_motion_dot": -2.63e-06,
        "meta_mean_motion_ddot": 0,
        "tle_line1": "1 41945U 17007B   25345.19771587 -.00000263  00000+0  00000+0 0  9992",
        "tle_line2": "2 41945   0.0343  80.0964 0000532 277.6705 110.3883  1.00269616 32343"
      },
      "geometry": {
        "type": "Point",
        "coordinates": [
          -84.16529103465814,
          -0.023815379215099283
        ]
      }
    },
    {
      "type": "Feature",
      "properties": {
        "norad_id": 42818,
        "name": "INTELSAT 35E (IS-35E)",
        "group": "intelsat",
        "lat": -0.032113663079273755,
        "lon": -75.48484645814479,
        "alt_km": 35777.85408592003,
        "timestamp": "2025-12-11T15:53:39.210215+00:00",
        "meta_object_name": "INTELSAT 35E (IS-35E)",
        "meta_object_id": "2017-041A",
        "meta_epoch": "2025-12-11T03:04:29.748576",
        "meta_mean_motion": 1.00269178,
        "meta_eccentricity": 0.00022113,
        "meta_inclination": 0.0179,
        "meta_ra_of_asc_node": 355.4658,
        "meta_arg_of_pericenter": 273.4798,
        "meta_mean_anomaly": 182.7563,
        "meta_ephemeris_type": 0,
        "meta_classification_type": "U",
        "meta_norad_cat_id": 42818,
        "meta_element_set_no": 999,
        "meta_rev_at_epoch": 3093,
        "meta_bstar": 0,
        "meta_mean_motion_dot": -2.33e-06,
        "meta_mean_motion_ddot": 0,
        "tle_line1": "1 42818U 17041A   25345.12812209 -.00000233  00000+0  00000+0 0  9997",
        "tle_line2": "2 42818   0.0179 355.4658 0002211 273.4798 182.7563  1.00269178 30935"
      },
      "geometry": {
        "type": "Point",
        "coordinates": [
          -75.48484645814479,
          -0.032113663079273755
        ]
      }
    },
    {
      "type": "Feature",
      "properties": {
        "norad_id": 42950,
        "name": "INTELSAT 37E (IS-37E)",
        "group": "intelsat",
        "lat": -0.013468315871331685,
        "lon": -58.942475355675946,
        "alt_km": 35776.686251100495,
        "timestamp": "2025-12-11T15:53:39.210227+00:00",
        "meta_object_name": "INTELSAT 37E (IS-37E)",
        "meta_object_id": "2017-059A",
        "meta_epoch": "2025-12-11T04:51:56.958048",
        "meta_mean_motion": 1.00271879,
        "meta_eccentricity": 0.00031625,
        "meta_inclination": 0.0018,
        "meta_ra_of_asc_node": 17.2406,
        "meta_arg_of_pericenter": 238.3081,
        "meta_mean_anomaly": 239.6081,
        "meta_ephemeris_type": 0,
        "meta_classification_type": "U",
        "meta_norad_cat_id": 42950,
        "meta_element_set_no": 999,
        "meta_rev_at_epoch": 3018,
        "meta_bstar": 0,
        "meta_mean_motion_dot": -1.35e-06,
        "meta_mean_motion_ddot": 0,
        "tle_line1": "1 42950U 17059A   25345.20274257 -.00000135  00000+0  00000+0 0  9998",
        "tle_line2": "2 42950   0.0018  17.2406 0003162 238.3081 239.6081  1.00271879 30184"
      },
      "geometry": {
        "type": "Point",
        "coordinates": [
          -58.942475355675946,
          -0.013468315871331685
        ]
      }
    },
    {
      "type": "Feature",
      "properties": {
        "norad_id": 43632,
        "name": "AZERSPACE 2 (IS-38)",
        "group": "intelsat",
        "lat": 0.00740041548850654,
        "lon": 4.150696030034695,
        "alt_km": 35786.782703587916,
        "timestamp": "2025-12-11T15:53:39.210245+00:00",
        "meta_object_name": "AZERSPACE 2 (IS-38)",
        "meta_object_id": "2018-074A",
        "meta_epoch": "2025-12-11T05:09:55.236960",
        "meta_mean_motion": 1.00271624,
        "meta_eccentricity": 0.00014552,
        "meta_inclination": 0.0184,
        "meta_ra_of_asc_node": 359.8612,
        "meta_arg_of_pericenter": 267.7257,
        "meta_mean_anomaly": 295.1778,
        "meta_ephemeris_type": 0,
        "meta_classification_type": "U",
        "meta_norad_cat_id": 43632,
        "meta_element_set_no": 999,
        "meta_rev_at_epoch": 2656,
        "meta_bstar": 0,
        "meta_mean_motion_dot": 1.42e-06,
        "meta_mean_motion_ddot": 0,
        "tle_line1": "1 43632U 18074A   25345.21522265  .00000142  00000+0  00000+0 0  9997",
        "tle_line2": "2 43632   0.0184 359.8612 0001455 267.7257 295.1778  1.00271624 26569"
      },
      "geometry": {
        "type": "Point",
        "coordinates": [
          4.150696030034695,
          0.00740041548850654
        ]
      }
    },
    {
      "type": "Feature",
      "properties": {
        "norad_id": 43633,
        "name": "HORIZONS-3E",
        "group": "intelsat",
        "lat": -0.025191727775659593,
        "lon": 128.02382035747203,
        "alt_km": 35791.13489873597,
        "timestamp": "2025-12-11T15:53:39.210270+00:00",
        "meta_object_name": "HORIZONS-3E",
        "meta_object_id": "2018-074B",
        "meta_epoch": "2025-12-10T19:28:56.939232",
        "meta_mean_motion": 1.00269493,
        "meta_eccentricity": 0.0001199,
        "meta_inclination": 0.0426,
        "meta_ra_of_asc_node": 178.6641,
        "meta_arg_of_pericenter": 100.4377,
        "meta_mean_anomaly": 261.9253,
        "meta_ephemeris_type": 0,
        "meta_classification_type": "U",
        "meta_norad_cat_id": 43633,
        "meta_element_set_no": 999,
        "meta_rev_at_epoch": 2645,
        "meta_bstar": 0,
        "meta_mean_motion_dot": -2.6e-07,
        "meta_mean_motion_ddot": 0,
        "tle_line1": "1 43633U 18074B   25344.81177013 -.00000026  00000+0  00000+0 0  9992",
        "tle_line2": "2 43633   0.0426 178.6641 0001199 100.4377 261.9253  1.00269493 26457"
      },
      "geometry": {
        "type": "Point",
        "coordinates": [
          128.02382035747203,
          -0.025191727775659593
        ]
      }
    }
  ]
}